{
    "links": {
        "self": "http://www.neowsapp.com/rest/v1/neo/3840756?api_key=iIulBulltgU6a56xZRHN4H3l9WmuAYTsLGpBGhQ2"
    },
    "id": "3840756",
    "neo_reference_id": "3840756",
    "name": "(2019 GC)",
    "designation": "2019 GC",
    "nasa_jpl_url": "http://ssd.jpl.nasa.gov/sbdb.cgi?sstr=3840756",
    "absolute_magnitude_h": 26.5,
    "estimated_diameter": {
        "kilometers": {
            "estimated_diameter_min": 0.0133215567,
            "estimated_diameter_max": 0.0297879063
        },
        "meters": {
            "estimated_diameter_min": 13.3215566698,
            "estimated_diameter_max": 29.7879062798
        },
        "miles": {
            "estimated_diameter_min": 0.008277629,
            "estimated_diameter_max": 0.0185093411
        },
        "feet": {
            "estimated_diameter_min": 43.7058959846,
            "estimated_diameter_max": 97.7293544391
        }
    },
    "is_potentially_hazardous_asteroid": false,
    "close_approach_data": [
        {
            "close_approach_date": "2008-08-13",
            "close_approach_date_full": "2008-Aug-13 12:36",
            "epoch_date_close_approach": 1218630960000,
            "relative_velocity": {
                "kilometers_per_second": "21.2517694987",
                "kilometers_per_hour": "76506.3701952538",
                "miles_per_hour": "47538.0831916009"
            },
            "miss_distance": {
                "astronomical": "0.4907937759",
                "lunar": "190.9187788251",
                "kilometers": "73421703.483897333",
                "miles": "45622131.0185678754"
            },
            "orbiting_body": "Earth"
        },
        {
            "close_approach_date": "2019-04-08",
            "close_approach_date_full": "2019-Apr-08 21:19",
            "epoch_date_close_approach": 1554758340000,
            "relative_velocity": {
                "kilometers_per_second": "6.6253728686",
                "kilometers_per_hour": "23851.3423267915",
                "miles_per_hour": "14820.2965696667"
            },
            "miss_distance": {
                "astronomical": "0.0159734104",
                "lunar": "6.2136566456",
                "kilometers": "2389588.172475848",
                "miles": "1484821.2383007824"
            },
            "orbiting_body": "Earth"
        },
        {
            "close_approach_date": "2022-08-08",
            "close_approach_date_full": "2022-Aug-08 17:02",
            "epoch_date_close_approach": 1659978120000,
            "relative_velocity": {
                "kilometers_per_second": "18.2528566061",
                "kilometers_per_hour": "65710.283781838",
                "miles_per_hour": "40829.8149421093"
            },
            "miss_distance": {
                "astronomical": "0.3879645483",
                "lunar": "150.9182092887",
                "kilometers": "58038670.061192121",
                "miles": "36063557.2866524298"
            },
            "orbiting_body": "Earth"
        },
        {
            "close_approach_date": "2036-08-03",
            "close_approach_date_full": "2036-Aug-03 17:41",
            "epoch_date_close_approach": 2101398060000,
            "relative_velocity": {
                "kilometers_per_second": "15.4936970011",
                "kilometers_per_hour": "55777.3092040428",
                "miles_per_hour": "34657.850821812"
            },
            "miss_distance": {
                "astronomical": "0.292914948",
                "lunar": "113.943914772",
                "kilometers": "43819452.31196076",
                "miles": "27228145.080788088"
            },
            "orbiting_body": "Earth"
        },
        {
            "close_approach_date": "2061-03-09",
            "close_approach_date_full": "2061-Mar-09 19:02",
            "epoch_date_close_approach": 2877620520000,
            "relative_velocity": {
                "kilometers_per_second": "18.9653965482",
                "kilometers_per_hour": "68275.4275733616",
                "miles_per_hour": "42423.6955385702"
            },
            "miss_distance": {
                "astronomical": "0.4065232897",
                "lunar": "158.1375596933",
                "kilometers": "60815018.244512939",
                "miles": "37788700.0518349982"
            },
            "orbiting_body": "Earth"
        }
    ],
    "orbital_data": {
        "orbit_id": "2",
        "orbit_determination_date": "2019-04-05 07:30:32",
        "first_observation_date": "2019-04-01",
        "last_observation_date": "2019-04-05",
        "data_arc_in_days": 4,
        "observations_used": 67,
        "orbit_uncertainty": "7",
        "minimum_orbit_intersection": ".00416716",
        "jupiter_tisserand_invariant": "4.846",
        "epoch_osculation": "2459000.5",
        "eccentricity": ".29997739847594",
        "semi_major_axis": "1.341989124712715",
        "inclination": ".8986145520299471",
        "ascending_node_longitude": "92.87340144808699",
        "orbital_period": "567.8346908520965",
        "perihelion_distance": ".9394227182983909",
        "perihelion_argument": "147.2793993503266",
        "aphelion_distance": "1.744555531127039",
        "perihelion_time": "2459185.601878327190",
        "mean_anomaly": "242.6477542296806",
        "mean_motion": ".6339873308194355",
        "equinox": "J2000",
        "orbit_class": {
            "orbit_class_type": "APO",
            "orbit_class_description": "Near-Earth asteroid orbits which cross the Earth’s orbit similar to that of 1862 Apollo",
            "orbit_class_range": "a (semi-major axis) > 1.0 AU; q (perihelion) < 1.017 AU"
        }
    },
    "is_sentry_object": false
}